{"fetched_at":"2026-03-30T06:02:59Z","count":15439,"tles":[{"name":"STARLINK-2453","line1":"1 47845U 21018BL  26087.62440016  .00002699  00000+0  19995-3 0  9997","line2":"2 47845  53.0537 166.6191 0001280  93.9180 266.1956 15.06414964279456","category":"Starlink"}]}