{
  "norad_id": 47845,
  "name": "STARLINK-2453",
  "history": [
    {
      "epoch": "2026-03-28T14:59:08.173824Z",
      "apogee_km": 548.0521345581992,
      "perigee_km": 546.2792570680722,
      "latitude_deg": 5.681513172321216e-05,
      "longitude_deg": 115.79291219578242,
      "height_km": 548.1037028702538,
      "semi_major_axis_km": 6925.302695813136,
      "eccentricity": 0.000128,
      "inclination_deg": 53.0537,
      "raan_deg": 166.6191,
      "arg_perigee_deg": 93.918,
      "mean_anomaly_deg": 266.1956,
      "mean_motion_rev_day": 15.06414964
    }
  ]
}